0 DELTA 1 DEB
1 14496U 77065FM  13281.06123944  .00004035  00000-0  17048-2 0  1067
2 14496 029.1642 151.7149 0376415 342.4370 181.6917 13.92025078581427
0 DELTA 1 DEB
1 14496U 77065FM  13285.76183291  .00003546  00000-0  14887-2 0  1074
2 14496 029.1674 126.0902 0377585 023.7195 338.1075 13.92063544582073
0 DELTA 1 DEB
1 14496U 77065FM  13285.77869661  .00005537  00000-0  23564-2 0  1082
2 14496 029.1636 125.9891 0375850 023.9269 062.5829 13.92072455582080
0 DELTA 1 DEB
1 14496U 77065FM  13286.86120848  .00005899  00000-0  25134-2 0  1097
2 14496 029.1634 120.0856 0375664 033.4553 087.5478 13.92082377582238
0 DELTA 1 DEB
1 14496U 77065FM  13287.63678505  .00008351  00000-0  35730-2 0  1102
2 14496 029.1631 115.8554 0375524 040.2791 014.3480 13.92089896582343
0 DELTA 1 DEB
1 14496U 77065FM  13290.57675679  .00009275  00000-0  39724-2 0  1112
2 14496 029.1629 099.8205 0375215 066.1127 348.2958 13.92128341582754
0 DELTA 1 DEB
1 14496U 77065FM  13292.51189362  .00008571  00000-0  36701-2 0  1128
2 14496 029.1632 089.2656 0374826 083.1433 326.6273 13.92155808583026
0 DELTA 1 DEB
1 14496U 77065FM  13293.51452767  .00009933  00000-0  42564-2 0  1139
2 14496 029.1633 083.7971 0374847 091.9411 311.6388 13.92170859583161
0 DELTA 1 DEB
1 14496U 77065FM  13294.75042873  .00013391  00000-0  57482-2 0  1148
2 14496 029.1635 077.0565 0374685 102.7975 025.8204 13.92192354583338
